{"fetched_at":"2026-07-15T06:36:19.321Z","source":"https://celestrak.org/NORAD/elements/gp.php?NAME=PLEIADES&FORMAT=JSON","constellation":"pleiades","records":[{"OBJECT_NAME":"PLEIADES 1A","OBJECT_ID":"2011-076F","EPOCH":"2026-07-14T23:33:09.840096","CLASSIFICATION_TYPE":"U","MEAN_MOTION":14.58545777,"ECCENTRICITY":0.00016926,"INCLINATION":98.1976,"RA_OF_ASC_NODE":270.7094,"ARG_OF_PERICENTER":79.894,"MEAN_ANOMALY":358.8427,"EPHEMERIS_TYPE":0,"NORAD_CAT_ID":38012,"ELEMENT_SET_NO":999,"REV_AT_EPOCH":77604,"BSTAR":-0.000016248503,"MEAN_MOTION_DOT":-0.00000121,"MEAN_MOTION_DDOT":0},{"OBJECT_NAME":"PLEIADES 1B","OBJECT_ID":"2012-068A","EPOCH":"2026-07-15T00:00:30.361824","CLASSIFICATION_TYPE":"U","MEAN_MOTION":14.58533997,"ECCENTRICITY":0.00015863,"INCLINATION":98.1948,"RA_OF_ASC_NODE":270.6675,"ARG_OF_PERICENTER":78.4689,"MEAN_ANOMALY":281.6689,"EPHEMERIS_TYPE":0,"NORAD_CAT_ID":39019,"ELEMENT_SET_NO":999,"REV_AT_EPOCH":72490,"BSTAR":0.00002612666,"MEAN_MOTION_DOT":7.6e-7,"MEAN_MOTION_DDOT":0}]}
